OCEANSAT-2              
1 35931U 09051A   26167.19874492 -.00000116  00000+0 -53759-4 0  9994
2 35931  98.2324 154.1488 0015128 238.9685 120.9997 13.99664574879195
WORLDVIEW-2 (WV-2)      
1 35946U 09055A   26167.18959333  .00000101  00000+0  48047-4 0  9997
2 35946  98.4737 240.6529 0003656 211.4543 148.6426 14.37899198875500
SMOS                    
1 36036U 09059A   26167.07759885  .00000200  00000+0  77592-4 0  9997
2 36036  98.4424 354.4288 0001323  88.9771 271.1569 14.39772084873299
YAOGAN-7                
1 36110U 09069A   26167.14099579  .00000418  00000+0  64953-4 0  9994
2 36110  98.0073  53.0144 0025625  44.9471 315.3808 14.78008967889470
TANDEM-X                
1 36605U 10030A   26166.54501978  .00000388  00000+0  21672-4 0  9994
2 36605  97.4452 174.2763 0001884  86.9240 273.2210 15.19149123886390
CARTOSAT-2B             
1 36795U 10035A   26167.18929810  .00000730  00000+0  10664-3 0  9998
2 36795  97.9954 217.7454 0011110 186.9575 173.1483 14.78661470859700
YAOGAN-10               
1 36834U 10038A   26167.21104163  .00000900  00000+0  11099-3 0  9997
2 36834  97.8972 190.6227 0001664  85.7914   2.5306 14.85345000857068
COSMO-SKYMED 4          
1 37216U 10060A   26167.16105353  .00000188  00000+0  30180-4 0  9994
2 37216  97.8878 350.7757 0001422  79.9083 280.2290 14.82152817844410
RESOURCESAT-2           
1 37387U 11015A   26167.17403446  .00000056  00000+0  45552-4 0  9992
2 37387  98.7644 234.6228 0010188 258.7394 101.2638 14.21606198786034
HAIYANG-2A              
1 37781U 11043A   26167.23760053  .00000092  00000+0  14361-3 0  9991
2 37781  99.3386 169.9346 0006072  93.2697 266.9147 13.74404931746520
RASAT                   
1 37791U 11044D   26167.22189897  .00000192  00000+0  41771-4 0  9990
2 37791  98.0583 258.6331 0020110 191.8556 222.1621 14.68164701793046
SRMSAT                  
1 37841U 11058D   26167.08586323  .00000355  00000+0  48745-4 0  9999
2 37841  19.9722  66.1331 0011815 191.4739 210.8496 14.11575350757668
PLEIADES 1A             
1 38012U 11076F   26167.23483264  .00000151  00000+0  42240-4 0  9995
2 38012  98.1982 242.3502 0001623  96.1222 330.9054 14.58570181771857
ZIYUAN 1-02C (ZY 1-02C) 
1 38038U 11079A   26167.17560666  .00000333  00000+0  12378-3 0  9991
2 38038  98.4078 234.5050 0005539 320.3023 124.6314 14.38214057759067
ARIRANG-3 (KOMPSAT-3)   
1 38338U 12025B   26167.14311248  .00000357  00000+0  80176-4 0  9991
2 38338  98.1170 124.6210 0006639 111.9419 248.2489 14.62205370751199
EXACTVIEW-1 (ADS-1B)    
1 38709U 12039C   26167.18757201  .00000094  00000+0  59879-4 0  9999
2 38709  98.9776 284.5552 0011109 169.1911 190.9508 14.24984290722563
SPOT 6                  
1 38755U 12047A   26167.16880994  .00000124  00000+0  36603-4 0  9997
2 38755  98.2125 234.4894 0001507  92.8255 267.3116 14.58562210732906
PLEIADES 1B             
1 39019U 12068A   26167.18772639  .00000150  00000+0  42190-4 0  9999
2 39019  98.1953 242.2528 0001655  92.1583 267.9805 14.58559808720705
GOKTURK 2               
1 39030U 12073A   26167.19922406  .00000595  00000+0  94244-4 0  9998
2 39030  97.6812   4.6804 0001642  55.5955 304.5410 14.75543005724362
LANDSAT 8               
1 39084U 13008A   26167.20069019  .00000269  00000+0  69759-4 0  9991
2 39084  98.2302 237.3476 0001351  93.7788 266.3565 14.57093927697758
SARAL                   
1 39086U 13009A   26167.13311351  .00000070  00000+0  41697-4 0  9996
2 39086  98.5556 353.7137 0000761 316.6884  43.4240 14.32855707695453
GAOFEN-1                
1 39150U 13018A   26167.18203251  .00000677  00000+0  10428-3 0  9992
2 39150  97.9101 239.2701 0015691 269.9606  89.9806 14.76536817708093
VNREDSAT 1              
1 39160U 13021B   26167.20102341  .00000537  00000+0  10899-3 0  9995
2 39160  97.9083 220.6553 0001708  89.6338 270.5061 14.64856343700140
ARIRANG-5 (KOMPSAT-5)   
1 39227U 13042A   26167.16846406  .00000866  00000+0  66253-4 0  9995
2 39227  97.6201 353.8833 0005281 122.0593 238.1146 15.04487529703708
SKYSAT-A                
1 39418U 13066C   26166.86845653  .00002573  00000+0  14884-3 0  9991
2 39418  97.3813 216.3078 0020185 322.3608  37.6210 15.12970148688284
DUBAISAT-2              
1 39419U 13066D   26167.20942676  .00001400  00000+0  89486-4 0  9993
2 39419  97.4555 157.3790 0012449  43.8372 316.3843 15.10173524686245
GPM-CORE                
1 39574U 14009C   26167.17345769  .00009700  00000+0  21241-3 0  9994
2 39574  64.9726 311.5214 0011909 251.1689 108.8160 15.44552356697650
SENTINEL-1A             
1 39634U 14016A   26167.20178154  .00000117  00000+0  34577-4 0  9995
2 39634  98.1770 174.7487 0001421  82.7844 277.3517 14.59199471649874
KAZEOSAT 1              
1 39731U 14024A   26167.18907837  .00000098  00000+0  42887-4 0  9998
2 39731  98.3211 239.6609 0001357  74.2407 285.8932 14.42079577638419
ALOS-2                  
1 39766U 14029A   26167.19230896  .00000959  00000+0  13523-3 0  9996
2 39766  97.9225 264.3695 0001640  92.4522 267.6877 14.79467814651430
KAZEOSAT 2              
1 40010U 14033A   26167.15227219 -.00000026  00000+0  28495-5 0  9998
2 40010  97.5401   6.8190 0008012 333.2556  26.8246 14.85467082648804
