OBJECT_NAME,OBJECT_ID,EPOCH,MEAN_MOTION,ECCENTRICITY,INCLINATION,RA_OF_ASC_NODE,ARG_OF_PERICENTER,MEAN_ANOMALY,EPHEMERIS_TYPE,CLASSIFICATION_TYPE,NORAD_CAT_ID,ELEMENT_SET_NO,REV_AT_EPOCH,BSTAR,MEAN_MOTION_DOT,MEAN_MOTION_DDOT
OCEANSAT-2,2009-051A,2026-06-16T04:46:11.561088,13.99664574,.0015128,98.2324,154.1488,238.9685,120.9997,0,U,35931,999,87919,-.53759E-4,-.116E-5,0
WORLDVIEW-2 (WV-2),2009-055A,2026-06-16T04:33:00.863712,14.37899198,.0003656,98.4737,240.6529,211.4543,148.6426,0,U,35946,999,87550,.48047E-4,.101E-5,0
SMOS,2009-059A,2026-06-16T01:51:44.540640,14.39772084,.0001323,98.4424,354.4288,88.9771,271.1569,0,U,36036,999,87329,.77592E-4,.2E-5,0
YAOGAN-7,2009-069A,2026-06-16T03:23:02.036256,14.78008967,.0025625,98.0073,53.0144,44.9471,315.3808,0,U,36110,999,88947,.64953E-4,.418E-5,0
TANDEM-X,2010-030A,2026-06-15T13:04:49.708992,15.19149123,.0001884,97.4452,174.2763,86.9240,273.2210,0,U,36605,999,88639,.21672042E-4,.388E-5,0
CARTOSAT-2B,2010-035A,2026-06-16T04:32:35.355840,14.78661470,.001111,97.9954,217.7454,186.9575,173.1483,0,U,36795,999,85970,.10664E-3,.73E-5,0
YAOGAN-10,2010-038A,2026-06-16T05:03:53.996832,14.85345000,.0001664,97.8972,190.6227,85.7914,2.5306,0,U,36834,999,85706,.11099E-3,.9E-5,0
COSMO-SKYMED 4,2010-060A,2026-06-16T03:51:55.024992,14.82152817,.0001422,97.8878,350.7757,79.9083,280.2290,0,U,37216,999,84441,.3018E-4,.188E-5,0
RESOURCESAT-2,2011-015A,2026-06-16T04:10:36.577344,14.21606198,.0010188,98.7644,234.6228,258.7394,101.2638,0,U,37387,999,78603,.45552E-4,.56E-6,0
HAIYANG-2A,2011-043A,2026-06-16T05:42:08.685792,13.74404931,.0006072,99.3386,169.9346,93.2697,266.9147,0,U,37781,999,74652,.14361E-3,.92E-6,0
RASAT,2011-044D,2026-06-16T05:19:32.071008,14.68164701,.002011,98.0583,258.6331,191.8556,222.1621,0,U,37791,999,79304,.41771E-4,.192E-5,0
SRMSAT,2011-058D,2026-06-16T02:03:38.583072,14.11575350,.0011815,19.9722,66.1331,191.4739,210.8496,0,U,37841,999,75766,.48745E-4,.355E-5,0
PLEIADES 1A,2011-076F,2026-06-16T05:38:09.540096,14.58570181,.0001623,98.1982,242.3502,96.1222,330.9054,0,U,38012,999,77185,.4224E-4,.151E-5,0
ZIYUAN 1-02C (ZY 1-02C),2011-079A,2026-06-16T04:12:52.415424,14.38214057,.0005539,98.4078,234.5050,320.3023,124.6314,0,U,38038,999,75906,.12378E-3,.333E-5,0
ARIRANG-3 (KOMPSAT-3),2012-025B,2026-06-16T03:26:04.918272,14.62205370,.0006639,98.1170,124.6210,111.9419,248.2489,0,U,38338,999,75119,.80176E-4,.357E-5,0
EXACTVIEW-1 (ADS-1B),2012-039C,2026-06-16T04:30:06.221664,14.24984290,.0011109,98.9776,284.5552,169.1911,190.9508,0,U,38709,999,72256,.59879E-4,.94E-6,0
SPOT 6,2012-047A,2026-06-16T04:03:05.178816,14.58562210,.0001507,98.2125,234.4894,92.8255,267.3116,0,U,38755,999,73290,.36603E-4,.124E-5,0
PLEIADES 1B,2012-068A,2026-06-16T04:30:19.560096,14.58559808,.0001655,98.1953,242.2528,92.1583,267.9805,0,U,39019,999,72070,.4219E-4,.15E-5,0
GOKTURK 2,2012-073A,2026-06-16T04:46:52.958784,14.75543005,.0001642,97.6812,4.6804,55.5955,304.5410,0,U,39030,999,72436,.94244E-4,.595E-5,0
LANDSAT 8,2013-008A,2026-06-16T04:48:59.632416,14.57093927,.0001351,98.2302,237.3476,93.7788,266.3565,0,U,39084,999,69775,.69759E-4,.269E-5,0
SARAL,2013-009A,2026-06-16T03:11:41.007264,14.32855707,.0000761,98.5556,353.7137,316.6884,43.4240,0,U,39086,999,69545,.41697E-4,.7E-6,0
GAOFEN-1,2013-018A,2026-06-16T04:22:07.608864,14.76536817,.0015691,97.9101,239.2701,269.9606,89.9806,0,U,39150,999,70809,.10428E-3,.677E-5,0
VNREDSAT 1,2013-021B,2026-06-16T04:49:28.422624,14.64856343,.0001708,97.9083,220.6553,89.6338,270.5061,0,U,39160,999,70014,.10899E-3,.537E-5,0
ARIRANG-5 (KOMPSAT-5),2013-042A,2026-06-16T04:02:35.294784,15.04487529,.0005281,97.6201,353.8833,122.0593,238.1146,0,U,39227,999,70370,.66253E-4,.866E-5,0
SKYSAT-A,2013-066C,2026-06-15T20:50:34.644192,15.12970148,.0020185,97.3813,216.3078,322.3608,37.6210,0,U,39418,999,68828,.14884E-3,.2573E-4,0
DUBAISAT-2,2013-066D,2026-06-16T05:01:34.472064,15.10173524,.0012449,97.4555,157.3790,43.8372,316.3843,0,U,39419,999,68624,.89486E-4,.14E-4,0
GPM-CORE,2014-009C,2026-06-16T04:09:46.744416,15.44552356,.0011909,64.9726,311.5214,251.1689,108.8160,0,U,39574,999,69765,.21241E-3,.97E-4,0
SENTINEL-1A,2014-016A,2026-06-16T04:50:33.925056,14.59199471,.0001421,98.1770,174.7487,82.7844,277.3517,0,U,39634,999,64987,.34577E-4,.117E-5,0
KAZEOSAT 1,2014-024A,2026-06-16T04:32:16.371168,14.42079577,.0001357,98.3211,239.6609,74.2407,285.8932,0,U,39731,999,63841,.42887E-4,.98E-6,0
ALOS-2,2014-029A,2026-06-16T04:36:55.494144,14.79467814,.000164,97.9225,264.3695,92.4522,267.6877,0,U,39766,999,65143,.13523E-3,.959E-5,0
KAZEOSAT 2,2014-033A,2026-06-16T03:39:16.317216,14.85467082,.0008012,97.5401,6.8190,333.2556,26.8246,0,U,40010,999,64880,.28495E-5,-.26E-6,0
